[{"OBJECT_NAME":"STARLINK-3225","OBJECT_ID":"2021-115P","EPOCH":"2026-03-09T12:56:06.863712","MEAN_MOTION":15.0882914,"ECCENTRICITY":0.00016693,"INCLINATION":53.2171,"RA_OF_ASC_NODE":149.7979,"ARG_OF_PERICENTER":90.6292,"MEAN_ANOMALY":269.4892,"EPHEMERIS_TYPE":0,"CLASSIFICATION_TYPE":"U","NORAD_CAT_ID":49737,"ELEMENT_SET_NO":999,"REV_AT_EPOCH":23551,"BSTAR":7.4690208e-5,"MEAN_MOTION_DOT":9.01e-6,"MEAN_MOTION_DDOT":0},{"OBJECT_NAME":"CZ-6A DEB","OBJECT_ID":"2024-140ABG","EPOCH":"2026-03-09T16:43:29.524800","MEAN_MOTION":15.18896608,"ECCENTRICITY":0.00616087,"INCLINATION":89.2171,"RA_OF_ASC_NODE":295.9508,"ARG_OF_PERICENTER":79.2706,"MEAN_ANOMALY":281.5467,"EPHEMERIS_TYPE":0,"CLASSIFICATION_TYPE":"U","NORAD_CAT_ID":61498,"ELEMENT_SET_NO":999,"REV_AT_EPOCH":8006,"BSTAR":0.0048163661,"MEAN_MOTION_DOT":0.0010689,"MEAN_MOTION_DDOT":0}]
